[{"OBJECT_NAME":"YAOGAN-30 05B","OBJECT_ID":"2018-011C","EPOCH":"2026-03-09T22:52:34.937760","MEAN_MOTION":15.02097859,"ECCENTRICITY":0.00016704,"INCLINATION":34.9964,"RA_OF_ASC_NODE":35.2967,"ARG_OF_PERICENTER":216.2291,"MEAN_ANOMALY":143.8304,"EPHEMERIS_TYPE":0,"CLASSIFICATION_TYPE":"U","NORAD_CAT_ID":43171,"ELEMENT_SET_NO":999,"REV_AT_EPOCH":44328,"BSTAR":0.00032774516,"MEAN_MOTION_DOT":4.367e-5,"MEAN_MOTION_DDOT":0},{"OBJECT_NAME":"STARLINK-5676","OBJECT_ID":"2023-015R","EPOCH":"2026-03-09T09:51:19.216512","MEAN_MOTION":15.02537475,"ECCENTRICITY":0.00013227,"INCLINATION":43.0036,"RA_OF_ASC_NODE":327.3675,"ARG_OF_PERICENTER":264.7007,"MEAN_ANOMALY":95.3684,"EPHEMERIS_TYPE":0,"CLASSIFICATION_TYPE":"U","NORAD_CAT_ID":55464,"ELEMENT_SET_NO":999,"REV_AT_EPOCH":17071,"BSTAR":5.9673237e-5,"MEAN_MOTION_DOT":6.03e-6,"MEAN_MOTION_DDOT":0}]
